LANDSAT 4               
1 13367U 82072A   08237.61369886 -.00000518  00000-0 -34140-4 0  7828
2 13367  98.1983 130.0369 0015939 245.5496 114.4068 15.02076171399997
TDRS 1                  
1 13969U 83026B   08237.40345608 -.00000305  00000-0  10000-3 0  6997
2 13969  13.1082  11.4968 0023845 222.9336 194.6913  1.00263530 66020
LANDSAT 5               
1 14780U 84021A   08238.15694666  .00000031  00000-0  16825-4 0  7032
2 14780  98.1429 303.2786 0005917 306.6800  53.3876 14.57141486302276
ERBS                    
1 15354U 84108B   08235.71367313 -.00000252  00000-0  21910-5 0  9132
2 15354  56.9906 307.3441 0013356 226.2946 133.6973 15.15569206306805
TDRS 3                  
1 19548U 88091B   08233.70376906 -.00000185  00000-0  10000-3 0  1066
2 19548  11.2531  42.8594 0014368 306.2001 318.2791  1.00267722 60125
TDRS 4                  
1 19883U 89021B   08233.90915289 -.00000279  00000-0  10000-3 0  4097
2 19883   9.8325  55.2022 0003887  93.8958 101.5585  1.00263020243707
HST                     
1 20580U 90037B   08237.19247571  .00000295  00000-0  99404-5 0  2068
2 20580  28.4690 239.6690 0003556  28.7444 331.3340 15.00401562805205
TDRS 5                  
1 21639U 91054B   08236.64557571  .00000086  00000-0  10000-3 0  2822
2 21639   9.1633  59.1017 0003568  88.9324 245.3015  1.00270732 62475
UARS                    
1 21701U 91063B   08237.80737948  .00003312  00000-0  54263-4 0  4477
2 21701  56.9720 221.7355 0078058 318.2349  41.2781 15.52445430933152
TOPEX/POSEIDON          
1 22076U 92052A   08237.48368700 -.00000038  00000-0  10000-3 0  2327
2 22076  66.0383 327.0090 0007838 266.7729  93.2390 12.80943360750241
TDRS 6                  
1 22314U 93003B   08235.51156069  .00000081  00000-0  10000-3 0  3333
2 22314   8.4969  62.2815 0003589  63.7490 215.4773  1.00272357 57185
TDRS 7                  
1 23613U 95035B   08236.44452213  .00000117  00000-0  10000-3 0  3673
2 23613  10.3873  51.4230 0002631  92.3341 197.5386  1.00273079 48008
XTE                     
1 23757U 95074A   08237.63557641  .00000813  00000-0  12986-4 0  6850
2 23757  22.9819 347.8782 0008337 237.2175 122.7533 15.26854464700380
TRMM                    
1 25063U 97074A   08237.76000290  .00002118  00000-0  30383-4 0  8539
2 25063  34.9658 139.1535 0000999 280.9215  79.1389 15.55824467613895
ETS 7                   
1 25064U 97074B   08238.04204988  .00000136  00000-0  67729-5 0  6094
2 25064  34.9600 101.0747 0001235 146.9945 213.0847 15.24852238595778
ISS (ZARYA)             
1 25544U 98067A   08238.17943287  .00006850  00000-0  57824-4 0  1195
2 25544  51.6431  22.2803 0008795  54.7965 296.5118 15.71121709559380
LANDSAT 7               
1 25682U 99020A   08238.19368066  .00000063  00000-0  23919-4 0  7909
2 25682  98.1876 304.1591 0001363  75.6468 284.4905 14.57120512497972
FUSE 1                  
1 25791U 99035A   08237.63007008  .00000122  00000-0 -17472-4 0  2572
2 25791  24.9865 345.8867 0009880  40.6837 319.4379 14.41773574483558
TERRA                   
1 25994U 99068A   08238.14494552  .00000075  00000-0  26764-4 0  8929
2 25994  98.2064 311.3203 0000862 111.5185 248.6119 14.57110228462049
TDRS 8                  
1 26388U 00034A   08236.88262866 -.00000226  00000-0  10000-3 0  7868
2 26388   0.8106 139.9867 0004194  22.7823 216.7346  1.00274028 29957
EO 1                    
1 26619U 00075A   08238.12911806  .00000237  00000-0  56787-4 0  2650
2 26619  98.1515 303.7312 0010034 147.7121 212.4752 14.61776549413017
TIMED                   
1 26998U 01055B   08236.38075170 -.00000036  00000-0 -31835-7 0   994
2 26998  74.0712 218.9519 0000834 353.6246   6.4884 14.84015141363344
TDRS 9                  
1 27389U 02011A   08236.54797734 -.00000282  00000-0  10000-3 0  2640
2 27389   3.0290 244.6438 0004435 289.0522 293.4949  1.00279965 25196
AQUA                    
1 27424U 02022A   08237.61570671  .00000036  00000-0  18096-4 0  9366
2 27424  98.2328 177.3935 0001143  75.3082 284.8236 14.57096988335575
TDRS 10                 
1 27566U 02055A   08235.87837654 -.00000260  00000-0  00000-0 0  9825
2 27566   1.8110 279.0668 0070062  52.6154 275.9732  1.00283044 21016
SORCE                   
1 27651U 03004A   08237.65557719  .00000085  00000-0  26418-4 0  6886
2 27651  39.9962 149.2188 0024891  85.0798 275.2834 14.82095036302289
GALEX                   
1 27783U 03017A   08237.44972714  .00000129  00000-0  49928-5 0  4743
2 27783  29.0003 264.8274 0003706  64.8864 295.2114 14.59695330284382
GP-B                    
1 28230U 04014A   08237.21402895 -.00000010  00000-0 -37097-5 0  3038
2 28230  89.9563 159.7233 0003514  91.8421 268.3215 14.75929601233970
AURA                    
1 28376U 04026A   08237.62152876  .00000037  00000-0  18210-4 0  2916
2 28376  98.2315 179.5554 0000905  72.9988 287.1308 14.57092445218628
SWIFT                   
1 28485U 04047A   08237.67833427  .00000506  00000-0  96596-5 0   871
2 28485  20.5554  77.4424 0013948 331.4185  28.5505 14.92428695205314
THEMIS A                
1 30580U 07004A   08237.68663491 -.00000363  00000-0  00000+0 0  3053
2 30580   9.9435 279.8519 7576152  58.0536 353.7831  1.12607867  5215
THEMIS B                
1 30581U 07004B   08227.12500000 -.00002398  00000-0  00000-0 0  1912
2 30581  14.3253 127.4701 8970443 190.1138 359.0248  0.25548930  5289
THEMIS C                
1 30582U 07004C   08237.33333333 -.00001121  00000-0  00000-0 0  2903
2 30582   0.9097  42.3055 8609195 281.5594 349.8667  0.50932665  3457
THEMIS D                
1 30797U 07004D   08238.25000000 -.00000452  00000-0  00000+0 0  3844
2 30797   4.7621 278.4648 7535986  60.4591 341.0914  1.00279434  4775
THEMIS E                
1 30798U 07004E   08238.33333333 -.00000478  00000-0  00000+0 0  3930
2 30798   5.2904 277.5427 7537227  61.4447 346.6967  1.00280135  4917
C/NOFS                  
1 32765U 08017A   08237.75224484  .00001307  00000-0  20107-4 0  1059
2 32765  13.0026  22.3106 0317060  28.1561 333.5527 14.80437768 19300
